SPAINSAT NG I           
1 62852U 25021A   26189.29142446  .00000166  00000+0  00000+0 0  9992
2 62852   0.0065  50.2929 0000112 189.0483 180.8032  1.00269765  4192
QZS-6 (MICHIBIKI-6)     
1 62876U 25023A   26189.58870902 -.00000218  00000+0  00000+0 0  9996
2 62876   0.0284 302.1596 0001866 184.4216 102.4005  1.00269124  5167
ZHONGXING-10R           
1 63075U 25036A   26189.58951870 -.00000337  00000+0  00000+0 0  9998
2 63075   0.0465 228.7880 0004164 284.0737  96.3899  1.00267211  5176
TJS-15                  
1 63157U 25045A   26189.76572477 -.00000250  00000+0  00000+0 0  9995
2 63157   0.3063  85.6177 0003463 297.5186 273.6120  1.00271848  4976
TIANLIAN 2-04           
1 63361U 25062A   26189.80052667 -.00000116  00000+0  00000+0 0  9991
2 63361   4.3221 274.1273 0031440   9.4190  11.4301  1.00270336  4820
TJS-16                  
1 63397U 25064A   26189.73960985 -.00000091  00000+0  00000+0 0  9997
2 63397   1.1505  81.3303 0002599 293.2592 338.9845  1.00271129  4600
TJS-17                  
1 63524U 25073A   26189.69138375 -.00000056  00000+0  00000+0 0  9995
2 63524   1.1163  82.5170 0001148 308.4962 309.0465  1.00270527  4503
TIANLIAN 2-05           
1 63662U 25084A   26189.78869793  .00000142  00000+0  00000+0 0  9990
2 63662   4.3993 279.5834 0002815 152.7673 158.7072  1.00269518  4598
TJS-19                  
1 63924U 25097A   26189.73958358 -.00000260  00000+0  00000+0 0  9998
2 63924   3.2518 317.7721 0003820 243.0314 133.3884  1.00268916  4369
CHINASAT 3B             
1 64062U 25106A   26189.81777340 -.00000030  00000+0  00000+0 0  9997
2 64062   0.0360 171.7312 0003691 330.0189 246.7158  1.00272297  4270
SXM-10                  
1 64290U 25122A   26189.54784084 -.00000002  00000+0  00000+0 0  9990
2 64290   0.0169  35.6319 0001604 327.2162   4.7213  1.00271092  3899
COSMOS 2589             
1 64467U 25131A   26189.67802382 -.00000276  00000+0  00000+0 0  9995
2 64467   0.0496 101.4705 0001302 117.5036  49.7192  1.00269150  3778
CHINASAT 9C             
1 64470U 25132A   26189.58905568 -.00000233  00000+0  00000+0 0  9993
2 64470   0.0378 238.9924 0002993 231.4005 120.4250  1.00271320  4369
MTG-S1                  
1 64723U 25143A   26189.28561777  .00000007  00000+0  00000+0 0  9991
2 64723   0.5883 343.4086 0003325 262.0261 143.1851  1.00272558  3633
DROR 1                  
1 64784U 25148A   26188.57185810 -.00000019  00000+0  00000+0 0  9998
2 64784   0.0147  55.5852 0002133 343.3746  88.4443  1.00272311  3508
SHIYAN-29               
1 65486U 25196A   26188.64396394 -.00000272  00000+0  00000+0 0  9991
2 65486  28.8426  18.2775 0013570 176.4070  57.9528  1.00279131  3083
NUSANTARA LIMA (NUSANT*)
1 65588U 25205A   26189.61769211 -.00000343  00000+0  00000+0 0  9994
2 65588   0.0140 198.4040 0000579 339.8003  83.5887  1.00270567  2933
TJS-20                  
1 66142U 25238A   26189.44056002  .00000043  00000+0  00000+0 0  9991
2 66142   5.4242 299.4609 0004480 177.3909  30.5443  1.00273237  2544
CMS-03 (GSAT-7R)        
1 66311U 25249B   26189.58550234 -.00000062  00000+0  00000+0 0  9994
2 66311   0.0451 256.5963 0001640 180.4712 134.2242  1.00271315  2560
VIASAT-3 F2             
1 66454U 25261A   26187.91557027 -.00000219  00000+0  00000+0 0  9992
2 66454   0.0344 192.7662 0000795  19.0684 323.6931  1.00272669  2990
SHIJIAN-28 (SJ-28)      
1 66549U 25277A   26189.59147014 -.00000341  00000+0  00000+0 0  9997
2 66549   4.4857 271.7918 0001032  29.7283 314.8147  1.00270811  2361
TJS-22                  
1 66990U 25290A   26188.82011979  .00000008  00000+0  00000+0 0  9996
2 66990   1.4790 286.8428 0002280 318.3891  42.3218  1.00274453  2239
TJS-23                  
1 67226U 25306A   26189.54325663  .00000035  00000+0  00000+0 0  9995
2 67226   5.5398 297.3766 0004862 189.7244 170.4572  1.00273883  2101
FENGYUN 4C              
1 67246U 25312A   26188.81301969 -.00000308  00000+0  00000+0 0  9990
2 67246   0.0414 191.8845 0000601  12.7213 146.8582  1.00271441  1987
SHIJIAN-29A (SJ-29A)    
1 67302U 25315A   26189.64362404 -.00000054  00000+0  00000+0 0  9997
2 67302   3.4492  94.6025 0003358  31.7619 105.0528  1.00270682  1833
SHIJIAN-29B (SJ-29B)    
1 67403U 25315C   26189.64358207 -.00000055  00000+0  00000+0 0  9996
2 67403   3.4482  94.5961 0004783  49.6092  87.2624  1.00272020  1902
ELEKTRO-L 5             
1 67756U 26028A   26188.99441562 -.00000082  00000+0  00000+0 0  9993
2 67756   0.2171 321.0164 0001919 177.9706 221.0307  1.00271970  1461
JAM-E JAM 1             
1 67757U 26028B   26189.22112366  .00000171  00000+0  00000+0 0  9996
2 67757   0.2198 309.4332 0001524 327.6720 122.6857  1.00270611  1333
ECHOSTAR 25             
1 68126U 26045A   26189.54905418 -.00000042  00000+0  00000+0 0  9997
2 68126   0.0172  31.0042 0001508  75.5827 267.5746  1.00270737  1200
TJS-24                  
1 69235U 26116A   26189.72962990 -.00000217  00000+0  00000+0 0  9990
2 69235   0.0608  97.6866 0000204 110.2114  71.7524  1.00271842   448
