OBJECT_NAME,OBJECT_ID,EPOCH,MEAN_MOTION,ECCENTRICITY,INCLINATION,RA_OF_ASC_NODE,ARG_OF_PERICENTER,MEAN_ANOMALY,EPHEMERIS_TYPE,CLASSIFICATION_TYPE,NORAD_CAT_ID,ELEMENT_SET_NO,REV_AT_EPOCH,BSTAR,MEAN_MOTION_DOT,MEAN_MOTION_DDOT
SPAINSAT NG I,2025-021A,2026-07-08T06:59:39.073344,1.00269765,.00001123,0.0065,50.2929,189.0483,180.8032,0,U,62852,999,419,0,.166E-5,0
QZS-6 (MICHIBIKI-6),2025-023A,2026-07-08T14:07:44.459328,1.00269124,.00018663,0.0284,302.1596,184.4216,102.4005,0,U,62876,999,516,0,-.218E-5,0
ZHONGXING-10R,2025-036A,2026-07-08T14:08:54.415680,1.00267211,.00041645,0.0465,228.7880,284.0737,96.3899,0,U,63075,999,517,0,-.337E-5,0
TJS-15,2025-045A,2026-07-08T18:22:38.620128,1.00271848,.0003463,0.3063,85.6177,297.5186,273.6120,0,U,63157,999,497,0,-.25E-5,0
TIANLIAN 2-04,2025-062A,2026-07-08T19:12:45.504288,1.00270336,.003144,4.3221,274.1273,9.4190,11.4301,0,U,63361,999,482,0,-.116E-5,0
TJS-16,2025-064A,2026-07-08T17:45:02.291040,1.00271129,.0002599,1.1505,81.3303,293.2592,338.9845,0,U,63397,999,460,0,-.91E-6,0
TJS-17,2025-073A,2026-07-08T16:35:35.556000,1.00270527,.0001148,1.1163,82.5170,308.4962,309.0465,0,U,63524,999,450,0,-.56E-6,0
TIANLIAN 2-05,2025-084A,2026-07-08T18:55:43.501152,1.00269518,.0002815,4.3993,279.5834,152.7673,158.7072,0,U,63662,999,459,0,.142E-5,0
TJS-19,2025-097A,2026-07-08T17:45:00.021312,1.00268916,.000382,3.2518,317.7721,243.0314,133.3884,0,U,63924,999,436,0,-.26E-5,0
CHINASAT 3B,2025-106A,2026-07-08T19:37:35.621760,1.00272297,.0003691,0.0360,171.7312,330.0189,246.7158,0,U,64062,999,427,0,-.3E-6,0
SXM-10,2025-122A,2026-07-08T13:08:53.448576,1.00271092,.00016049,0.0169,35.6319,327.2162,4.7213,0,U,64290,999,389,0,-.2E-7,0
COSMOS 2589,2025-131A,2026-07-08T16:16:21.258048,1.00269150,.0001302,0.0496,101.4705,117.5036,49.7192,0,U,64467,999,377,0,-.276E-5,0
CHINASAT 9C,2025-132A,2026-07-08T14:08:14.410752,1.00271320,.00029934,0.0378,238.9924,231.4005,120.4250,0,U,64470,999,436,0,-.233E-5,0
MTG-S1,2025-143A,2026-07-08T06:51:17.375328,1.00272558,.00033259,0.5883,343.4086,262.0261,143.1851,0,U,64723,999,363,0,.7E-7,0
DROR 1,2025-148A,2026-07-07T13:43:28.539840,1.00272311,.0002133,0.0147,55.5852,343.3746,88.4443,0,U,64784,999,350,0,-.19E-6,0
SHIYAN-29,2025-196A,2026-07-07T15:27:18.484416,1.00279131,.001357,28.8426,18.2775,176.4070,57.9528,0,U,65486,999,308,0,-.272E-5,0
NUSANTARA LIMA (NUSANTARA 5),2025-205A,2026-07-08T14:49:28.598304,1.00270567,.00005797,0.0140,198.4040,339.8003,83.5887,0,U,65588,999,293,0,-.343E-5,0
TJS-20,2025-238A,2026-07-08T10:34:24.385728,1.00273237,.00044805,5.4242,299.4609,177.3909,30.5443,0,U,66142,999,254,0,.43E-6,0
CMS-03 (GSAT-7R),2025-249B,2026-07-08T14:03:07.402176,1.00271315,.000164,0.0451,256.5963,180.4712,134.2242,0,U,66311,999,256,0,-.62E-6,0
VIASAT-3 F2,2025-261A,2026-07-06T21:58:25.271328,1.00272669,.00007959,0.0344,192.7662,19.0684,323.6931,0,U,66454,999,299,0,-.219E-5,0
SHIJIAN-28 (SJ-28),2025-277A,2026-07-08T14:11:43.020096,1.00270811,.00010322,4.4857,271.7918,29.7283,314.8147,0,U,66549,999,236,0,-.341E-5,0
TJS-22,2025-290A,2026-07-07T19:40:58.349856,1.00274453,.000228,1.4790,286.8428,318.3891,42.3218,0,U,66990,999,223,0,.8E-7,0
TJS-23,2025-306A,2026-07-08T13:02:17.372832,1.00273883,.00048628,5.5398,297.3766,189.7244,170.4572,0,U,67226,999,210,0,.35E-6,0
FENGYUN 4C,2025-312A,2026-07-07T19:30:44.901216,1.00271441,.00006013,0.0414,191.8845,12.7213,146.8582,0,U,67246,999,198,0,-.308E-5,0
SHIJIAN-29A (SJ-29A),2025-315A,2026-07-08T15:26:49.117056,1.00270682,.0003358,3.4492,94.6025,31.7619,105.0528,0,U,67302,999,183,0,-.54E-6,0
SHIJIAN-29B (SJ-29B),2025-315C,2026-07-08T15:26:45.490848,1.00272020,.0004783,3.4482,94.5961,49.6092,87.2624,0,U,67403,999,190,0,-.55E-6,0
ELEKTRO-L 5,2026-028A,2026-07-07T23:51:57.509568,1.00271970,.00019194,0.2171,321.0164,177.9706,221.0307,0,U,67756,999,146,0,-.82E-6,0
JAM-E JAM 1,2026-028B,2026-07-08T05:18:25.084224,1.00270611,.00015247,0.2198,309.4332,327.6720,122.6857,0,U,67757,999,133,0,.171E-5,0
ECHOSTAR 25,2026-045A,2026-07-08T13:10:38.281152,1.00270737,.00015082,0.0172,31.0042,75.5827,267.5746,0,U,68126,999,120,0,-.42E-6,0
TJS-24,2026-116A,2026-07-08T17:30:40.023360,1.00271842,.0000204,0.0608,97.6866,110.2114,71.7524,0,U,69235,999,44,0,-.217E-5,0
